From: horizons@ssd.jpl.nasa.gov (Horizons Ephemeris System)
Subject: [Horizons] SMALL BODY #C(500@399)_T(SOHO (P/2003 T12)) (1/1)
Date: January 29, 2021 at 10:45:34 PM PST

Automated mail xmit by PORT_LOGIN, PID= 24809 Fri Jan 29 22:45:33 2021
++++++++++++++++++++++++++++++++ (part 1 of 1)  +++++++++++++++++++++++++++++++
*******************************************************************************
Ephemeris / PORT_LOGIN Fri Jan 29 22:45:06 2021 Pasadena, USA    / Horizons
*******************************************************************************
Target body name: SOHO (P/2003 T12)               {source: JPL#8}
Center body name: Earth (399)                     {source: DE431}
Center-site name: BODY CENTER
*******************************************************************************
Start time      : A.D. 2028-Jan-17 04:52:27.0000 TDB
Stop  time      : A.D. 2029-Jan-17 04:52:27.0000 TDB
Step-size       : 10080 minutes
*******************************************************************************
Center geodetic : 0.00000000,0.00000000,0.0000000 {E-lon(deg),Lat(deg),Alt(km)}
Center cylindric: 0.00000000,0.00000000,0.0000000 {E-lon(deg),Dxy(km),Dz(km)}
Center radii    : 6378.1 x 6378.1 x 6356.8 km     {Equator, meridian, pole}    
Small perturbers: Yes                             {source: SB431-N16}
Output units    : AU-D
Output type     : GEOMETRIC cartesian states
Output format   : 6 (LT, range, and range-rate)
EOP file        : eop.210129.p210422
EOP coverage    : DATA-BASED 1962-JAN-20 TO 2021-JAN-29. PREDICTS-> 2021-APR-21
Reference frame : Ecliptic of J2000.0
*******************************************************************************
Initial IAU76/J2000 heliocentric ecliptic osculating elements (au, days, deg.):
 EPOCH=  2456072.5 ! 2012-May-25.0000000 (TDB)    RMSW= n.a.                  
  EC= .7761661411908493   QR= .5748057249730697   TP= 2455952.9465752076      
  OM= 176.4657147869952   W= 217.6688329855281    IN= 11.47515445399187       
 Equivalent ICRF heliocentric equatorial cartesian coordinates (au, au/d):
  X=-1.800299770760705E+00  Y= 6.044070409057362E-01  Z= 1.508821487259301E-01
 VX=-1.299099925970802E-02 VY=-5.082113451756473E-03 VZ=-9.159972533264544E-04
Comet physical (GM= km^3/s^2; RAD= km):                                        
  GM= n.a.                RAD= n.a.                                           
  M1=  19.6     M2=  n.a.     k1=  21.75  k2= n.a.     PHCOF= n.a.            
*******************************************************************************
           JDTDB,            Calendar Date (TDB),                     LT,                     RG,                     RR,
**************************************************************************************************************************
$$SOE
2461787.703090278, A.D. 2028-Jan-17 04:52:27.0000,  2.060694711077525E-02,  3.567982288032679E+00, -1.593761357270960E-02,
2461794.703090278, A.D. 2028-Jan-24 04:52:27.0000,  1.994204497395981E-02,  3.452858051789454E+00, -1.694203841473980E-02,
2461801.703090278, A.D. 2028-Jan-31 04:52:27.0000,  1.923828254838359E-02,  3.331005365123126E+00, -1.785626821308719E-02,
2461808.703090278, A.D. 2028-Feb-07 04:52:27.0000,  1.849965520611367E-02,  3.203116005262650E+00, -1.866581158052168E-02,
2461815.703090278, A.D. 2028-Feb-14 04:52:27.0000,  1.773032546217517E-02,  3.069910689343050E+00, -1.937903344574180E-02,
2461822.703090278, A.D. 2028-Feb-21 04:52:27.0000,  1.693384826796213E-02,  2.932004938117623E+00, -2.000679330028387E-02,
2461829.703090278, A.D. 2028-Feb-28 04:52:27.0000,  1.611405635195668E-02,  2.790062367951550E+00, -2.052925981657421E-02,
2461836.703090278, A.D. 2028-Mar-06 04:52:27.0000,  1.527548949528002E-02,  2.644869017579476E+00, -2.093510344009849E-02,
2461843.703090278, A.D. 2028-Mar-13 04:52:27.0000,  1.442273246157967E-02,  2.497218714219055E+00, -2.123559711959848E-02,
2461850.703090278, A.D. 2028-Mar-20 04:52:27.0000,  1.355963201736249E-02,  2.347777504844097E+00, -2.144555975467203E-02,
2461857.703090278, A.D. 2028-Mar-27 04:52:27.0000,  1.269015069902180E-02,  2.197231481362884E+00, -2.154858753425317E-02,
2461864.703090278, A.D. 2028-Apr-03 04:52:27.0000,  1.181884324132567E-02,  2.046369271653762E+00, -2.153581725621626E-02,
2461871.703090278, A.D. 2028-Apr-10 04:52:27.0000,  1.095020716913697E-02,  1.895969598007054E+00, -2.142107805867357E-02,
2461878.703090278, A.D. 2028-Apr-17 04:52:27.0000,  1.008790642134865E-02,  1.746666851776523E+00, -2.122187311803942E-02,
2461885.703090278, A.D. 2028-Apr-24 04:52:27.0000,  9.235590819717242E-03,  1.599092980009529E+00, -2.092469740365510E-02,
2461892.703090278, A.D. 2028-May-01 04:52:27.0000,  8.397434302160122E-03,  1.453970677653580E+00, -2.052137410086582E-02,
2461899.703090278, A.D. 2028-May-08 04:52:27.0000,  7.577534604375032E-03,  1.312009445650860E+00, -2.002604100574345E-02,
2461906.703090278, A.D. 2028-May-15 04:52:27.0000,  6.779182558695309E-03,  1.173779073956916E+00, -1.945477717111010E-02,
2461913.703090278, A.D. 2028-May-22 04:52:27.0000,  6.005720001695388E-03,  1.039858183637886E+00, -1.879128148139709E-02,
2461920.703090278, A.D. 2028-May-29 04:52:27.0000,  5.261281621578375E-03,  9.109626737639194E-01, -1.801612726161236E-02,
2461927.703090278, A.D. 2028-Jun-05 04:52:27.0000,  4.550612047799832E-03,  7.879140514592746E-01, -1.711975108421286E-02,
2461934.703090278, A.D. 2028-Jun-12 04:52:27.0000,  3.879051661941431E-03,  6.716369751312506E-01, -1.606991635383984E-02,
2461941.703090278, A.D. 2028-Jun-19 04:52:27.0000,  3.254797562588043E-03,  5.635507284033194E-01, -1.475292340310898E-02,
2461948.703090278, A.D. 2028-Jun-26 04:52:27.0000,  2.692761278600044E-03,  4.662371624626225E-01, -1.294028896631439E-02,
2461955.703090278, A.D. 2028-Jul-03 04:52:27.0000,  2.220732057250519E-03,  3.845078363205512E-01, -1.020956402584481E-02,
2461962.703090278, A.D. 2028-Jul-10 04:52:27.0000,  1.888110275711641E-03,  3.269161601365508E-01, -5.940832397101513E-03,
2461969.703090278, A.D. 2028-Jul-17 04:52:27.0000,  1.763840607349761E-03,  3.053995340554834E-01,  4.517738475926826E-10,
2461976.703090278, A.D. 2028-Jul-24 04:52:27.0000,  1.890969983887339E-03,  3.274113032581876E-01,  6.147869397893998E-03,
2461983.703090278, A.D. 2028-Jul-31 04:52:27.0000,  2.241591830615128E-03,  3.881195941174343E-01,  1.092933965437778E-02,
2461990.703090278, A.D. 2028-Aug-07 04:52:27.0000,  2.755922363797503E-03,  4.771731653584429E-01,  1.433047307452187E-02,
2461997.703090278, A.D. 2028-Aug-14 04:52:27.0000,  3.388507300500678E-03,  5.867018518591716E-01,  1.684012816469563E-02,
2462004.703090278, A.D. 2028-Aug-21 04:52:27.0000,  4.107521238916257E-03,  7.111952561137960E-01,  1.859203228698153E-02,
2462011.703090278, A.D. 2028-Aug-28 04:52:27.0000,  4.878939118430836E-03,  8.447621215006893E-01,  1.938985340830560E-02,
2462018.703090278, A.D. 2028-Sep-04 04:52:27.0000,  5.660194586229407E-03,  9.800323124974143E-01,  1.907967906355132E-02,
2462025.703090278, A.D. 2028-Sep-11 04:52:27.0000,  6.409479939152798E-03,  1.109767049697524E+00,  1.787247669208990E-02,
2462032.703090278, A.D. 2028-Sep-18 04:52:27.0000,  7.098998536485101E-03,  1.229153493954683E+00,  1.619277226137494E-02,
2462039.703090278, A.D. 2028-Sep-25 04:52:27.0000,  7.717145727887819E-03,  1.336182362348720E+00,  1.438441328207720E-02,
2462046.703090278, A.D. 2028-Oct-02 04:52:27.0000,  8.262511304049210E-03,  1.430609484706359E+00,  1.260402532534660E-02,
2462053.703090278, A.D. 2028-Oct-09 04:52:27.0000,  8.737085382735762E-03,  1.512779439237258E+00,  1.088280080783346E-02,
2462060.703090278, A.D. 2028-Oct-16 04:52:27.0000,  9.143183906330362E-03,  1.583093218934597E+00,  9.215617532005704E-03,
2462067.703090278, A.D. 2028-Oct-23 04:52:27.0000,  9.483089267696351E-03,  1.641946007872316E+00,  7.611621592936481E-03,
2462074.703090278, A.D. 2028-Oct-30 04:52:27.0000,  9.759548158562245E-03,  1.689813380980819E+00,  6.074531664488727E-03,
2462081.703090278, A.D. 2028-Nov-06 04:52:27.0000,  9.974945679308954E-03,  1.727108305589450E+00,  4.588533768804858E-03,
2462088.703090278, A.D. 2028-Nov-13 04:52:27.0000,  1.013113785423411E-02,  1.754152142343457E+00,  3.146350279640973E-03,
2462095.703090278, A.D. 2028-Nov-20 04:52:27.0000,  1.023026137624797E-02,  1.771314848151924E+00,  1.771796524810730E-03,
2462102.703090278, A.D. 2028-Nov-27 04:52:27.0000,  1.027564764300866E-02,  1.779173236638658E+00,  4.889279116887643E-04,
2462109.703090278, A.D. 2028-Dec-04 04:52:27.0000,  1.027104890094813E-02,  1.778376989133824E+00, -7.008650327165571E-04,
2462116.703090278, A.D. 2028-Dec-11 04:52:27.0000,  1.022030764101212E-02,  1.769591412320776E+00, -1.790420507501335E-03,
2462123.703090278, A.D. 2028-Dec-18 04:52:27.0000,  1.012817274387093E-02,  1.753638749398786E+00, -2.739647285460093E-03,
2462130.703090278, A.D. 2028-Dec-25 04:52:27.0000,  1.000122222198075E-02,  1.731657947918307E+00, -3.509145900431485E-03,
2462137.703090278, A.D. 2029-Jan-01 04:52:27.0000,  9.847070141560688E-03,  1.704967342578005E+00, -4.082990887928331E-03,
2462144.703090278, A.D. 2029-Jan-08 04:52:27.0000,  9.673976241585780E-03,  1.674997062848698E+00, -4.440220622361833E-03,
2462151.703090278, A.D. 2029-Jan-15 04:52:27.0000,  9.491727540794951E-03,  1.643441678494912E+00, -4.524950487656594E-03,
$$EOE
**************************************************************************************************************************
Coordinate system description:

 Ecliptic at the standard reference epoch

   Reference epoch: J2000.0
   X-Y plane: adopted Earth orbital plane at the reference epoch
              Note: obliquity of 84381.448 arcseconds (IAU76) wrt ICRF equator
   X-axis   : ICRF
   Z-axis   : perpendicular to the X-Y plane in the directional (+ or -) sense
              of Earth's north pole at the reference epoch.

 Symbol meaning [1 au= 149597870.700 km, 1 day= 86400.0 s]:

   JDTDB    Julian Day Number, Barycentric Dynamical Time
     LT     One-way down-leg Newtonian light-time (day)
     RG     Range; distance from coordinate center (au)
     RR     Range-rate; radial velocity wrt coord. center (au/day)

Geometric states/elements have no aberrations applied.


Computations by ...
    Solar System Dynamics Group, Horizons On-Line Ephemeris System
    4800 Oak Grove Drive, Jet Propulsion Laboratory
    Pasadena, CA  91109   USA
    Information  : https://ssd.jpl.nasa.gov/
    Documentation: https://ssd.jpl.nasa.gov/?horizons_doc
    Connect      : https://ssd.jpl.nasa.gov/?horizons (browser)
                   telnet ssd.jpl.nasa.gov 6775       (command-line)
                   e-mail command interface available
                   Script and CGI interfaces available
    Author       : Jon.D.Giorgini@jpl.nasa.gov
*******************************************************************************
